{
  "type": "FeatureCollection",
  "features": [
    {
      "type": "Feature",
      "properties": {
        "norad_id": 37108,
        "name": "COSMOS 2251 DEB",
        "group": "cosmos-2251-debris",
        "lat": -18.428315941261996,
        "lon": -108.70117688224295,
        "alt_km": 724.5105242987811,
        "timestamp": "2025-12-20T16:47:36.682221+00:00",
        "meta_object_name": "COSMOS 2251 DEB",
        "meta_object_id": "1993-036BGE",
        "meta_epoch": "2025-12-19T14:53:35.707488",
        "meta_mean_motion": 14.41350949,
        "meta_eccentricity": 0.00906536,
        "meta_inclination": 74.0446,
        "meta_ra_of_asc_node": 67.8256,
        "meta_arg_of_pericenter": 142.8208,
        "meta_mean_anomaly": 217.9273,
        "meta_ephemeris_type": 0,
        "meta_classification_type": "U",
        "meta_norad_cat_id": 37108,
        "meta_element_set_no": 999,
        "meta_rev_at_epoch": 85606,
        "meta_bstar": 0.00071158692,
        "meta_mean_motion_dot": 2.393e-05,
        "meta_mean_motion_ddot": 0,
        "tle_line1": "1 37108U 93036BGE 25353.62055217  .00002393  00000+0  71159-3 0  9998",
        "tle_line2": "2 37108  74.0446  67.8256 0090653 142.8208 217.9273 14.41350949856064"
      },
      "geometry": {
        "type": "Point",
        "coordinates": [
          -108.70117688224295,
          -18.428315941261996
        ]
      }
    },
    {
      "type": "Feature",
      "properties": {
        "norad_id": 37126,
        "name": "COSMOS 2251 DEB",
        "group": "cosmos-2251-debris",
        "lat": -66.49326720339451,
        "lon": -62.495864100452884,
        "alt_km": 630.5273756418783,
        "timestamp": "2025-12-20T16:47:36.682231+00:00",
        "meta_object_name": "COSMOS 2251 DEB",
        "meta_object_id": "1993-036BGY",
        "meta_epoch": "2025-12-20T05:42:55.988064",
        "meta_mean_motion": 14.73095826,
        "meta_eccentricity": 0.012286,
        "meta_inclination": 73.953,
        "meta_ra_of_asc_node": 339.8407,
        "meta_arg_of_pericenter": 216.3855,
        "meta_mean_anomaly": 142.8921,
        "meta_ephemeris_type": 0,
        "meta_classification_type": "U",
        "meta_norad_cat_id": 37126,
        "meta_element_set_no": 999,
        "meta_rev_at_epoch": 8209,
        "meta_bstar": 0.00014955,
        "meta_mean_motion_dot": 1.046e-05,
        "meta_mean_motion_ddot": 0,
        "tle_line1": "1 37126U 93036BGY 25354.23814801  .00001046  00000+0  14955-3 0  9993",
        "tle_line2": "2 37126  73.9530 339.8407 0122860 216.3855 142.8921 14.73095826 82092"
      },
      "geometry": {
        "type": "Point",
        "coordinates": [
          -62.495864100452884,
          -66.49326720339451
        ]
      }
    },
    {
      "type": "Feature",
      "properties": {
        "norad_id": 37132,
        "name": "COSMOS 2251 DEB",
        "group": "cosmos-2251-debris",
        "lat": 58.74213804545231,
        "lon": 10.18323061928546,
        "alt_km": 636.9378140995123,
        "timestamp": "2025-12-20T16:47:36.682241+00:00",
        "meta_object_name": "COSMOS 2251 DEB",
        "meta_object_id": "1993-036BHE",
        "meta_epoch": "2025-12-15T09:32:55.769280",
        "meta_mean_motion": 14.77873409,
        "meta_eccentricity": 0.00399597,
        "meta_inclination": 74.0031,
        "meta_ra_of_asc_node": 228.8126,
        "meta_arg_of_pericenter": 24.0962,
        "meta_mean_anomaly": 336.207,
        "meta_ephemeris_type": 0,
        "meta_classification_type": "U",
        "meta_norad_cat_id": 37132,
        "meta_element_set_no": 999,
        "meta_rev_at_epoch": 62455,
        "meta_bstar": 0.00059917342,
        "meta_mean_motion_dot": 4.336e-05,
        "meta_mean_motion_ddot": 0,
        "tle_line1": "1 37132U 93036BHE 25349.39786770  .00004336  00000+0  59917-3 0  9996",
        "tle_line2": "2 37132  74.0031 228.8126 0039959  24.0962 336.2070 14.77873409624553"
      },
      "geometry": {
        "type": "Point",
        "coordinates": [
          10.18323061928546,
          58.74213804545231
        ]
      }
    },
    {
      "type": "Feature",
      "properties": {
        "norad_id": 37270,
        "name": "COSMOS 2251 DEB",
        "group": "cosmos-2251-debris",
        "lat": 42.35710874357377,
        "lon": 127.67621887980283,
        "alt_km": 1311.938277210449,
        "timestamp": "2025-12-20T16:47:36.682251+00:00",
        "meta_object_name": "COSMOS 2251 DEB",
        "meta_object_id": "1993-036BHJ",
        "meta_epoch": "2025-12-12T22:45:06.098400",
        "meta_mean_motion": 13.59808663,
        "meta_eccentricity": 0.03985351,
        "meta_inclination": 73.9378,
        "meta_ra_of_asc_node": 335.5481,
        "meta_arg_of_pericenter": 347.3958,
        "meta_mean_anomaly": 11.7404,
        "meta_ephemeris_type": 0,
        "meta_classification_type": "U",
        "meta_norad_cat_id": 37270,
        "meta_element_set_no": 999,
        "meta_rev_at_epoch": 77072,
        "meta_bstar": 0.0064936549,
        "meta_mean_motion_dot": 8.148e-05,
        "meta_mean_motion_ddot": 0,
        "tle_line1": "1 37270U 93036BHJ 25346.94798725  .00008148  00000+0  64937-2 0  9992",
        "tle_line2": "2 37270  73.9378 335.5481 0398535 347.3958  11.7404 13.59808663770728"
      },
      "geometry": {
        "type": "Point",
        "coordinates": [
          127.67621887980283,
          42.35710874357377
        ]
      }
    },
    {
      "type": "Feature",
      "properties": {
        "norad_id": 37278,
        "name": "COSMOS 2251 DEB",
        "group": "cosmos-2251-debris",
        "lat": -52.094689673898095,
        "lon": -46.99679375810923,
        "alt_km": 1031.0613442824288,
        "timestamp": "2025-12-20T16:47:36.682260+00:00",
        "meta_object_name": "COSMOS 2251 DEB",
        "meta_object_id": "1993-036BHS",
        "meta_epoch": "2025-12-04T09:26:36.152736",
        "meta_mean_motion": 14.15029915,
        "meta_eccentricity": 0.029998,
        "meta_inclination": 73.7864,
        "meta_ra_of_asc_node": 4.3592,
        "meta_arg_of_pericenter": 188.2556,
        "meta_mean_anomaly": 234.4903,
        "meta_ephemeris_type": 0,
        "meta_classification_type": "U",
        "meta_norad_cat_id": 37278,
        "meta_element_set_no": 999,
        "meta_rev_at_epoch": 63711,
        "meta_bstar": 0.0023061,
        "meta_mean_motion_dot": 6.884e-05,
        "meta_mean_motion_ddot": 0,
        "tle_line1": "1 37278U 93036BHS 25338.39347399  .00006884  00000+0  23061-2 0  9995",
        "tle_line2": "2 37278  73.7864   4.3592 0299980 188.2556 234.4903 14.15029915637119"
      },
      "geometry": {
        "type": "Point",
        "coordinates": [
          -46.99679375810923,
          -52.094689673898095
        ]
      }
    },
    {
      "type": "Feature",
      "properties": {
        "norad_id": 37280,
        "name": "COSMOS 2251 DEB",
        "group": "cosmos-2251-debris",
        "lat": 8.103659688618809,
        "lon": 45.17774387341855,
        "alt_km": 917.8900488912686,
        "timestamp": "2025-12-20T16:47:36.682270+00:00",
        "meta_object_name": "COSMOS 2251 DEB",
        "meta_object_id": "1993-036BHU",
        "meta_epoch": "2025-12-18T10:37:18.156864",
        "meta_mean_motion": 14.19346827,
        "meta_eccentricity": 0.01304682,
        "meta_inclination": 74.0327,
        "meta_ra_of_asc_node": 46.8744,
        "meta_arg_of_pericenter": 174.3277,
        "meta_mean_anomaly": 185.9383,
        "meta_ephemeris_type": 0,
        "meta_classification_type": "U",
        "meta_norad_cat_id": 37280,
        "meta_element_set_no": 999,
        "meta_rev_at_epoch": 57404,
        "meta_bstar": 0.00096951251,
        "meta_mean_motion_dot": 2.193e-05,
        "meta_mean_motion_ddot": 0,
        "tle_line1": "1 37280U 93036BHU 25352.44257126  .00002193  00000+0  96951-3 0  9996",
        "tle_line2": "2 37280  74.0327  46.8744 0130468 174.3277 185.9383 14.19346827574043"
      },
      "geometry": {
        "type": "Point",
        "coordinates": [
          45.17774387341855,
          8.103659688618809
        ]
      }
    },
    {
      "type": "Feature",
      "properties": {
        "norad_id": 37284,
        "name": "COSMOS 2251 DEB",
        "group": "cosmos-2251-debris",
        "lat": 2.0779092658926333,
        "lon": -37.95807730311707,
        "alt_km": 899.5434648957225,
        "timestamp": "2025-12-20T16:47:36.682280+00:00",
        "meta_object_name": "COSMOS 2251 DEB",
        "meta_object_id": "1993-036BHY",
        "meta_epoch": "2025-12-10T18:04:20.469216",
        "meta_mean_motion": 14.12686618,
        "meta_eccentricity": 0.01605026,
        "meta_inclination": 74.0123,
        "meta_ra_of_asc_node": 160.2425,
        "meta_arg_of_pericenter": 312.4867,
        "meta_mean_anomaly": 59.8736,
        "meta_ephemeris_type": 0,
        "meta_classification_type": "U",
        "meta_norad_cat_id": 37284,
        "meta_element_set_no": 999,
        "meta_rev_at_epoch": 59147,
        "meta_bstar": 0.001592138,
        "meta_mean_motion_dot": 3.31e-05,
        "meta_mean_motion_ddot": 0,
        "tle_line1": "1 37284U 93036BHY 25344.75301469  .00003310  00000+0  15921-2 0  9994",
        "tle_line2": "2 37284  74.0123 160.2425 0160502 312.4867  59.8736 14.12686618591475"
      },
      "geometry": {
        "type": "Point",
        "coordinates": [
          -37.95807730311707,
          2.0779092658926333
        ]
      }
    }
  ]
}